[{"OBJECT_NAME":"STARLINK-34203","OBJECT_ID":"2025-119P","EPOCH":"2026-03-09T01:22:19.202880","MEAN_MOTION":15.276615,"ECCENTRICITY":0.00026261,"INCLINATION":43.0031,"RA_OF_ASC_NODE":310.5368,"ARG_OF_PERICENTER":280.0912,"MEAN_ANOMALY":79.9644,"EPHEMERIS_TYPE":0,"CLASSIFICATION_TYPE":"U","NORAD_CAT_ID":64246,"ELEMENT_SET_NO":999,"REV_AT_EPOCH":4408,"BSTAR":0.0025130672,"MEAN_MOTION_DOT":0.00069725,"MEAN_MOTION_DDOT":0},{"OBJECT_NAME":"GEOSCAN 6 (RS92S6)","OBJECT_ID":"2025-155D","EPOCH":"2026-03-09T21:52:39.201312","MEAN_MOTION":15.27985277,"ECCENTRICITY":0.00087677,"INCLINATION":97.4466,"RA_OF_ASC_NODE":37.2933,"ARG_OF_PERICENTER":153.7679,"MEAN_ANOMALY":206.4006,"EPHEMERIS_TYPE":0,"CLASSIFICATION_TYPE":"U","NORAD_CAT_ID":64879,"ELEMENT_SET_NO":999,"REV_AT_EPOCH":6559,"BSTAR":0.00053762354,"MEAN_MOTION_DOT":0.00014633,"MEAN_MOTION_DDOT":0}]
